start=new Date('2023-05-05T00:00:00.000Z').valueOf();
sats=[{"SITE":"AFETR","CLASSIFICATION_TYPE":"U","FILE":"3900291","RCS_SIZE":"LARGE","PERIOD":"90.295","OBJECT_NAME":"STARLINK-30096","EPHEMERIS_TYPE":"0","ELEMENT_SET_NO":"999","DECAY_DATE":null,"MEAN_ANOMALY":"219.8142","MEAN_MOTION_DOT":"0.01237675","SEMIMAJOR_AXIS":"6667.105","REF_FRAME":"TEME","BSTAR":"0.00313800000000","MEAN_MOTION":"15.94765325","NORAD_CAT_ID":"56286","OBJECT_ID":"2023-056A","CENTER_NAME":"EARTH","LAUNCH_DATE":"2023-04-19","COUNTRY_CODE":"US","RA_OF_ASC_NODE":"113.6419","OBJECT_TYPE":"PAYLOAD","MEAN_MOTION_DDOT":"0.0007315700000","PERIAPSIS":"286.290","EPOCH":"2023-05-04T02:21:45.103680","REV_AT_EPOCH":"356","TIME_SYSTEM":"UTC","GP_ID":"231202602","ECCENTRICITY":"0.00040200","TLE_LINE1":"1 56286U 23056A   23124.09843870  .01237675  73157-3  31380-2 0  9998","INCLINATION":"42.9946","TLE_LINE2":"2 56286  42.9946 113.6419 0004020 140.2847 219.8142 15.94765325  3568","APOAPSIS":"291.651","MEAN_ELEMENT_THEORY":"SGP4","ARG_OF_PERICENTER":"140.2847"},{"DECAY_DATE":null,"MEAN_ANOMALY":"315.3027","MEAN_MOTION_DOT":"-0.01231313","SEMIMAJOR_AXIS":"6807.019","REF_FRAME":"TEME","BSTAR":"-0.02728600000000","MEAN_MOTION":"15.45849952","NORAD_CAT_ID":"56287","CLASSIFICATION_TYPE":"U","SITE":"AFETR","FILE":"3901166","RCS_SIZE":"LARGE","PERIOD":"93.153","OBJECT_NAME":"STARLINK-30107","EPHEMERIS_TYPE":"0","ELEMENT_SET_NO":"999","TLE_LINE2":"2 56287  43.0013 110.2950 0001153 260.4109 315.3027 15.45849952  2916","APOAPSIS":"429.669","MEAN_ELEMENT_THEORY":"SGP4","ARG_OF_PERICENTER":"260.4109","OBJECT_ID":"2023-056B","CENTER_NAME":"EARTH","LAUNCH_DATE":"2023-04-19","COUNTRY_CODE":"US","RA_OF_ASC_NODE":"110.2950","OBJECT_TYPE":"PAYLOAD","MEAN_MOTION_DDOT":"0.0000000000000","PERIAPSIS":"428.099","EPOCH":"2023-05-05T02:00:01.000224","TIME_SYSTEM":"UTC","REV_AT_EPOCH":"291","GP_ID":"231249302","ECCENTRICITY":"0.00011530","TLE_LINE1":"1 56287U 23056B   23125.08334491 -.01231313  00000-0 -27286-1 0  9991","INCLINATION":"43.0013"},{"RA_OF_ASC_NODE":"110.2924","OBJECT_TYPE":"PAYLOAD","MEAN_MOTION_DDOT":"0.0000000000000","EPOCH":"2023-05-05T02:00:01.000224","PERIAPSIS":"428.043","REV_AT_EPOCH":"291","TIME_SYSTEM":"UTC","GP_ID":"231249309","TLE_LINE1":"1 56288U 23056C   23125.08334491 -.01231177  00000-0 -27264-1 0  9996","ECCENTRICITY":"0.00011500","INCLINATION":"43.0013","OBJECT_ID":"2023-056C","CENTER_NAME":"EARTH","LAUNCH_DATE":"2023-04-19","COUNTRY_CODE":"US","MEAN_ELEMENT_THEORY":"SGP4","ARG_OF_PERICENTER":"259.9045","TLE_LINE2":"2 56288  43.0013 110.2924 0001150 259.9045 316.8081 15.45869739  2918","APOAPSIS":"429.609","FILE":"3901166","RCS_SIZE":"LARGE","PERIOD":"93.151","OBJECT_NAME":"STARLINK-30106","EPHEMERIS_TYPE":"0","ELEMENT_SET_NO":"999","SITE":"AFETR","CLASSIFICATION_TYPE":"U","REF_FRAME":"TEME","BSTAR":"-0.02726400000000","MEAN_MOTION":"15.45869739","NORAD_CAT_ID":"56288","DECAY_DATE":null,"MEAN_ANOMALY":"316.8081","MEAN_MOTION_DOT":"-0.01231177","SEMIMAJOR_AXIS":"6806.961"},{"TLE_LINE2":"2 56289  43.0010 109.7090 0001604 200.1415  75.1944 15.77340156  1303","APOAPSIS":"339.059","MEAN_ELEMENT_THEORY":"SGP4","ARG_OF_PERICENTER":"200.1415","CENTER_NAME":"EARTH","OBJECT_ID":"2023-056D","LAUNCH_DATE":"2023-04-19","COUNTRY_CODE":"US","OBJECT_TYPE":"PAYLOAD","RA_OF_ASC_NODE":"109.7090","MEAN_MOTION_DDOT":"0.0000000000000","TIME_SYSTEM":"UTC","REV_AT_EPOCH":"130","PERIAPSIS":"336.905","EPOCH":"2023-05-04T22:00:01.999584","INCLINATION":"43.0010","TLE_LINE1":"1 56289U 23056D   23124.91668981  .00236235  00000-0  13539-2 0  9990","ECCENTRICITY":"0.00016040","GP_ID":"231276313","MEAN_ANOMALY":"75.1944","DECAY_DATE":null,"MEAN_MOTION_DOT":"0.00236235","SEMIMAJOR_AXIS":"6716.117","BSTAR":"0.00135390000000","REF_FRAME":"TEME","NORAD_CAT_ID":"56289","MEAN_MOTION":"15.77340156","SITE":"AFETR","CLASSIFICATION_TYPE":"U","FILE":"3901186","RCS_SIZE":"LARGE","OBJECT_NAME":"STARLINK-30095","PERIOD":"91.293","ELEMENT_SET_NO":"999","EPHEMERIS_TYPE":"0"},{"RCS_SIZE":"LARGE","FILE":"3901166","ELEMENT_SET_NO":"999","EPHEMERIS_TYPE":"0","OBJECT_NAME":"STARLINK-30103","PERIOD":"93.152","SITE":"AFETR","CLASSIFICATION_TYPE":"U","NORAD_CAT_ID":"56290","MEAN_MOTION":"15.45859703","BSTAR":"-0.02727800000000","REF_FRAME":"TEME","MEAN_ANOMALY":"317.7457","DECAY_DATE":null,"SEMIMAJOR_AXIS":"6806.990","MEAN_MOTION_DOT":"-0.01231358","MEAN_MOTION_DDOT":"0.0000000000000","OBJECT_TYPE":"PAYLOAD","RA_OF_ASC_NODE":"110.2938","TLE_LINE1":"1 56290U 23056E   23125.08334491 -.01231358  00000-0 -27278-1 0  9995","INCLINATION":"43.0015","ECCENTRICITY":"0.00011360","GP_ID":"231249045","TIME_SYSTEM":"UTC","REV_AT_EPOCH":"291","EPOCH":"2023-05-05T02:00:01.000224","PERIAPSIS":"428.082","LAUNCH_DATE":"2023-04-19","CENTER_NAME":"EARTH","OBJECT_ID":"2023-056E","COUNTRY_CODE":"US","MEAN_ELEMENT_THEORY":"SGP4","ARG_OF_PERICENTER":"258.4595","TLE_LINE2":"2 56290  43.0015 110.2938 0001136 258.4595 317.7457 15.45859703  2913","APOAPSIS":"429.628"},{"COUNTRY_CODE":"US","LAUNCH_DATE":"2023-04-19","CENTER_NAME":"EARTH","OBJECT_ID":"2023-056F","ECCENTRICITY":"0.00011430","TLE_LINE1":"1 56291U 23056F   23125.08334491 -.01231526  00000-0 -27263-1 0  9997","INCLINATION":"43.0014","GP_ID":"231249326","REV_AT_EPOCH":"291","TIME_SYSTEM":"UTC","PERIAPSIS":"428.018","EPOCH":"2023-05-05T02:00:01.000224","MEAN_MOTION_DDOT":"0.0000000000000","OBJECT_TYPE":"PAYLOAD","RA_OF_ASC_NODE":"110.2912","APOAPSIS":"429.574","TLE_LINE2":"2 56291  43.0014 110.2912 0001143 261.8526 315.3608 15.45879849  2910","ARG_OF_PERICENTER":"261.8526","MEAN_ELEMENT_THEORY":"SGP4","CLASSIFICATION_TYPE":"U","SITE":"AFETR","ELEMENT_SET_NO":"999","EPHEMERIS_TYPE":"0","OBJECT_NAME":"STARLINK-30113","PERIOD":"93.151","RCS_SIZE":"LARGE","FILE":"3901167","SEMIMAJOR_AXIS":"6806.931","MEAN_MOTION_DOT":"-0.01231526","MEAN_ANOMALY":"315.3608","DECAY_DATE":null,"NORAD_CAT_ID":"56291","MEAN_MOTION":"15.45879849","BSTAR":"-0.02726300000000","REF_FRAME":"TEME"},{"DECAY_DATE":null,"MEAN_ANOMALY":"326.2645","MEAN_MOTION_DOT":"-0.01231064","SEMIMAJOR_AXIS":"6806.849","REF_FRAME":"TEME","BSTAR":"-0.02722500000000","MEAN_MOTION":"15.45907808","NORAD_CAT_ID":"56292","CLASSIFICATION_TYPE":"U","SITE":"AFETR","FILE":"3901167","RCS_SIZE":"LARGE","PERIOD":"93.149","OBJECT_NAME":"STARLINK-30098","EPHEMERIS_TYPE":"0","ELEMENT_SET_NO":"999","TLE_LINE2":"2 56292  43.0015 110.2876 0001191 252.4354 326.2645 15.45907808  2918","APOAPSIS":"429.525","MEAN_ELEMENT_THEORY":"SGP4","ARG_OF_PERICENTER":"252.4354","OBJECT_ID":"2023-056G","CENTER_NAME":"EARTH","LAUNCH_DATE":"2023-04-19","COUNTRY_CODE":"US","RA_OF_ASC_NODE":"110.2876","OBJECT_TYPE":"PAYLOAD","MEAN_MOTION_DDOT":"0.0000000000000","EPOCH":"2023-05-05T02:00:01.000224","PERIAPSIS":"427.903","REV_AT_EPOCH":"291","TIME_SYSTEM":"UTC","GP_ID":"231249324","TLE_LINE1":"1 56292U 23056G   23125.08334491 -.01231064  00000-0 -27225-1 0  9993","ECCENTRICITY":"0.00011910","INCLINATION":"43.0015"},{"NORAD_CAT_ID":"56293","MEAN_MOTION":"15.45898199","BSTAR":"-0.02723700000000","REF_FRAME":"TEME","MEAN_ANOMALY":"319.0015","DECAY_DATE":null,"SEMIMAJOR_AXIS":"6806.877","MEAN_MOTION_DOT":"-0.01231175","RCS_SIZE":"LARGE","FILE":"3901167","ELEMENT_SET_NO":"999","EPHEMERIS_TYPE":"0","OBJECT_NAME":"STARLINK-30090","PERIOD":"93.150","SITE":"AFETR","CLASSIFICATION_TYPE":"U","MEAN_ELEMENT_THEORY":"SGP4","ARG_OF_PERICENTER":"259.2013","TLE_LINE2":"2 56293  43.0014 110.2892 0001157 259.2013 319.0015 15.45898199  2918","APOAPSIS":"429.530","MEAN_MOTION_DDOT":"0.0000000000000","OBJECT_TYPE":"PAYLOAD","RA_OF_ASC_NODE":"110.2892","TLE_LINE1":"1 56293U 23056H   23125.08334491 -.01231175  00000-0 -27237-1 0  9990","ECCENTRICITY":"0.00011570","INCLINATION":"43.0014","GP_ID":"231249048","REV_AT_EPOCH":"291","TIME_SYSTEM":"UTC","PERIAPSIS":"427.955","EPOCH":"2023-05-05T02:00:01.000224","LAUNCH_DATE":"2023-04-19","CENTER_NAME":"EARTH","OBJECT_ID":"2023-056H","COUNTRY_CODE":"US"},{"TLE_LINE2":"2 56294  43.0016 110.9698 0001297 258.1768 228.0055 15.55094881  1304","APOAPSIS":"402.758","MEAN_ELEMENT_THEORY":"SGP4","ARG_OF_PERICENTER":"258.1768","OBJECT_ID":"2023-056J","CENTER_NAME":"EARTH","LAUNCH_DATE":"2023-04-19","COUNTRY_CODE":"US","RA_OF_ASC_NODE":"110.9698","OBJECT_TYPE":"PAYLOAD","MEAN_MOTION_DDOT":"0.0000000000000","PERIAPSIS":"400.999","EPOCH":"2023-05-04T22:00:01.999584","REV_AT_EPOCH":"130","TIME_SYSTEM":"UTC","GP_ID":"231276341","INCLINATION":"43.0016","TLE_LINE1":"1 56294U 23056J   23124.91668981 -.00618878  00000-0 -96726-2 0  9994","ECCENTRICITY":"0.00012970","DECAY_DATE":null,"MEAN_ANOMALY":"228.0055","MEAN_MOTION_DOT":"-0.00618878","SEMIMAJOR_AXIS":"6780.014","REF_FRAME":"TEME","BSTAR":"-0.00967260000000","MEAN_MOTION":"15.55094881","NORAD_CAT_ID":"56294","CLASSIFICATION_TYPE":"U","SITE":"AFETR","FILE":"3901186","RCS_SIZE":"MEDIUM","PERIOD":"92.599","OBJECT_NAME":"STARLINK-30049","EPHEMERIS_TYPE":"0","ELEMENT_SET_NO":"999"},{"EPHEMERIS_TYPE":"0","ELEMENT_SET_NO":"999","PERIOD":"91.260","OBJECT_NAME":"STARLINK-30083","RCS_SIZE":"LARGE","FILE":"3901167","CLASSIFICATION_TYPE":"U","SITE":"AFETR","MEAN_MOTION":"15.77910507","NORAD_CAT_ID":"56295","REF_FRAME":"TEME","BSTAR":"0.00097194000000","SEMIMAJOR_AXIS":"6714.499","MEAN_MOTION_DOT":"0.00172524","DECAY_DATE":null,"MEAN_ANOMALY":"319.7295","GP_ID":"231249059","TLE_LINE1":"1 56295U 23056K   23125.08334491  .00172524  00000-0  97194-3 0  9992","ECCENTRICITY":"0.00017710","INCLINATION":"43.0010","PERIAPSIS":"335.175","EPOCH":"2023-05-05T02:00:01.000224","REV_AT_EPOCH":"293","TIME_SYSTEM":"UTC","MEAN_MOTION_DDOT":"0.0000000000000","RA_OF_ASC_NODE":"108.6649","OBJECT_TYPE":"PAYLOAD","COUNTRY_CODE":"US","LAUNCH_DATE":"2023-04-19","OBJECT_ID":"2023-056K","CENTER_NAME":"EARTH","ARG_OF_PERICENTER":"195.9194","MEAN_ELEMENT_THEORY":"SGP4","APOAPSIS":"337.553","TLE_LINE2":"2 56295  43.0010 108.6649 0001771 195.9194 319.7295 15.77910507  2937"}];
